ONEWEB-0410             
1 51622U 22012A   26188.41629868  .00000077  00000+0  16620-3 0  9993
2 51622  87.9149   1.8340 0002221  55.0674 305.0666 13.17649969216365
ONEWEB-0411             
1 51623U 22012B   26187.94267483  .00000633  00000+0  17763-2 0  9998
2 51623  87.8825  32.3314 0002179  98.9697 261.1678 13.10374208211879
ONEWEB-0415             
1 51624U 22012C   26187.93927643  .00000545  00000+0  15247-2 0  9996
2 51624  87.8822  32.3302 0002130  88.8593 271.2778 13.10374993211878
ONEWEB-0416             
1 51625U 22012D   26187.95115423  .00000499  00000+0  13927-2 0  9995
2 51625  87.8814  32.3449 0002224  87.6733 272.4649 13.10372073211911
ONEWEB-0422             
1 51626U 22012E   26187.89486889  .00000058  00000+0  11601-3 0  9995
2 51626  87.9145   1.9387 0001615 110.5777 249.5528 13.17650727216402
ONEWEB-0423             
1 51627U 22012F   26188.41966555  .00000030  00000+0  44353-4 0  9999
2 51627  87.9139   1.8382 0001812  88.9432 271.1907 13.17647992216362
ONEWEB-0425             
1 51628U 22012G   26188.03769033  .00000089  00000+0  21953-3 0  9994
2 51628  87.8815  32.3114 0001945  75.1328 285.0015 13.10371204211928
ONEWEB-0428             
1 51629U 22012H   26187.94097311  .00000743  00000+0  20922-2 0  9998
2 51629  87.8817  32.3378 0001857  85.8849 274.2490 13.10375779211873
ONEWEB-0431             
1 51630U 22012J   26187.98659669 -.00000575  00000+0 -16848-2 0  9991
2 51630  87.8822  32.3215 0002213 100.1786 259.9591 13.10373502211930
ONEWEB-0434             
1 51631U 22012K   26187.58306899 -.00000245  00000+0 -73683-3 0  9997
2 51631  87.8819  32.4278 0001812  66.5126 293.6192 13.10365459211860
ONEWEB-0435             
1 51632U 22012L   26188.50600723 -.00002622  00000+0 -75519-2 0  9994
2 51632  87.8812  32.2318 0002063 118.2305 241.9031 13.10345810211979
ONEWEB-0436             
1 51633U 22012M   26188.41122754  .00000035  00000+0  57411-4 0  9995
2 51633  87.9147   1.8230 0001828  97.6968 262.4371 13.17650816216343
ONEWEB-0438             
1 51634U 22012N   26188.49073292  .00000351  00000+0  97046-3 0  9994
2 51634  87.8815  32.2351 0001917  80.7759 279.3586 13.10372319212003
ONEWEB-0439             
1 51635U 22012P   26188.49412887  .00000251  00000+0  68238-3 0  9992
2 51635  87.8813  32.2215 0001812  85.7365 274.3969 13.10370887211987
ONEWEB-0442             
1 51636U 22012Q   26188.47959234  .00000086  00000+0  18865-3 0  9990
2 51636  87.9137   1.8404 0001981  74.9183 285.2167 13.17650533216347
ONEWEB-0443             
1 51637U 22012R   26187.89148532  .00000014  00000+0  31764-5 0  9993
2 51637  87.9137   1.9588 0001531  88.5154 271.6153 13.17649333216319
ONEWEB-0444             
1 51638U 22012S   26187.94944969  .00000562  00000+0  15728-2 0  9995
2 51638  87.8815  32.3287 0001649  86.9228 273.2088 13.10373252211924
ONEWEB-0445             
1 51639U 22012T   26188.73336252 -.00001240  00000+0 -35910-2 0  9995
2 51639  87.8824  32.1620 0002059  86.8225 273.3138 13.10359707212035
ONEWEB-0446             
1 51640U 22012U   26187.94772992  .00000589  00000+0  16519-2 0  9991
2 51640  87.8817  32.3463 0002193  85.8312 274.3066 13.10370374211911
ONEWEB-0448             
1 51641U 22012V   26187.95284365  .00000424  00000+0  11779-2 0  9996
2 51641  87.8813  32.3412 0001812  86.5409 273.5925 13.10372803211884
ONEWEB-0449             
1 51642U 22012W   26187.57612585  .00000109  00000+0  27608-3 0  9993
2 51642  87.8818  32.4029 0002110  71.1207 289.0149 13.10370027211845
ONEWEB-0451             
1 51643U 22012X   26188.48379725  .00000101  00000+0  22577-3 0  9993
2 51643  87.9148   1.8065 0001798  86.3623 273.7714 13.17650708216335
ONEWEB-0452             
1 51644U 22012Y   26188.48209734  .00000087  00000+0  19194-3 0  9990
2 51644  87.9140   1.8419 0001598  86.3348 273.7967 13.17650761216343
ONEWEB-0456             
1 51646U 22012AA  26188.50087601 -.00000110  00000+0 -35279-3 0  9993
2 51646  87.8826  32.2073 0001743  90.4675 269.6652 13.10368740212000
ONEWEB-0457             
1 51647U 22012AB  26187.94422745  .00000692  00000+0  19450-2 0  9998
2 51647  87.8818  32.3344 0002187  82.6143 277.5233 13.10374858211931
ONEWEB-0458             
1 51648U 22012AC  26187.96554305 -.00000183  00000+0 -55948-3 0  9999
2 51648  87.8818  32.3184 0001674  82.9378 277.1939 13.10369409211897
ONEWEB-0461             
1 51649U 22012AD  26188.57998439  .00000014  00000+0  33537-5 0  9991
2 51649  87.9148   1.8010 0001967  89.7493 270.3864 13.17649951216574
ONEWEB-0463             
1 51650U 22012AE  26188.48548747  .00000067  00000+0  13892-3 0  9994
2 51650  87.9136   1.8404 0002047  91.7166 268.4200 13.17650642216346
ONEWEB-0464             
1 51651U 22012AF  26188.03936084 -.00000012  00000+0 -71928-4 0  9998
2 51651  87.8814  32.3250 0001527  88.9202 271.2100 13.10369216211925
ONEWEB-0468             
1 51652U 22012AG  26188.34985698 -.00000245  00000+0 -73743-3 0  9992
2 51652  87.8813  32.2563 0001616  91.2637 268.8676 13.10368480211943
