OBJECT_NAME,OBJECT_ID,EPOCH,MEAN_MOTION,ECCENTRICITY,INCLINATION,RA_OF_ASC_NODE,ARG_OF_PERICENTER,MEAN_ANOMALY,EPHEMERIS_TYPE,CLASSIFICATION_TYPE,NORAD_CAT_ID,ELEMENT_SET_NO,REV_AT_EPOCH,BSTAR,MEAN_MOTION_DOT,MEAN_MOTION_DDOT
ONEWEB-0410,2022-012A,2026-07-07T09:59:28.205952,13.17649969,.00022211,87.9149,1.8340,55.0674,305.0666,0,U,51622,999,21636,.16619926E-3,.77E-6,0
ONEWEB-0411,2022-012B,2026-07-06T22:37:27.105312,13.10374208,.00021797,87.8825,32.3314,98.9697,261.1678,0,U,51623,999,21187,.1776303E-2,.633E-5,0
ONEWEB-0415,2022-012C,2026-07-06T22:32:33.483552,13.10374993,.00021305,87.8822,32.3302,88.8593,271.2778,0,U,51624,999,21187,.15247388E-2,.545E-5,0
ONEWEB-0416,2022-012D,2026-07-06T22:49:39.725472,13.10372073,.00022246,87.8814,32.3449,87.6733,272.4649,0,U,51625,999,21191,.13927474E-2,.499E-5,0
ONEWEB-0422,2022-012E,2026-07-06T21:28:36.672096,13.17650727,.00016158,87.9145,1.9387,110.5777,249.5528,0,U,51626,999,21640,.11600794E-3,.58E-6,0
ONEWEB-0423,2022-012F,2026-07-07T10:04:19.103520,13.17647992,.00018125,87.9139,1.8382,88.9432,271.1907,0,U,51627,999,21636,.44352623E-4,.3E-6,0
ONEWEB-0425,2022-012G,2026-07-07T00:54:16.444512,13.10371204,.00019454,87.8815,32.3114,75.1328,285.0015,0,U,51628,999,21192,.21953416E-3,.89E-6,0
ONEWEB-0428,2022-012H,2026-07-06T22:35:00.076704,13.10375779,.00018575,87.8817,32.3378,85.8849,274.2490,0,U,51629,999,21187,.20921503E-2,.743E-5,0
ONEWEB-0431,2022-012J,2026-07-06T23:40:41.954016,13.10373502,.00022137,87.8822,32.3215,100.1786,259.9591,0,U,51630,999,21193,-.16848147E-2,-.575E-5,0
ONEWEB-0434,2022-012K,2026-07-06T13:59:37.160736,13.10365459,.00018127,87.8819,32.4278,66.5126,293.6192,0,U,51631,999,21186,-.73683428E-3,-.245E-5,0
ONEWEB-0435,2022-012L,2026-07-07T12:08:39.024672,13.10345810,.00020637,87.8812,32.2318,118.2305,241.9031,0,U,51632,999,21197,-.75518711E-2,-.2622E-4,0
ONEWEB-0436,2022-012M,2026-07-07T09:52:10.059456,13.17650816,.00018288,87.9147,1.8230,97.6968,262.4371,0,U,51633,999,21634,.57411238E-4,.35E-6,0
ONEWEB-0438,2022-012N,2026-07-07T11:46:39.324288,13.10372319,.00019175,87.8815,32.2351,80.7759,279.3586,0,U,51634,999,21200,.97045864E-3,.351E-5,0
ONEWEB-0439,2022-012P,2026-07-07T11:51:32.734368,13.10370887,.0001812,87.8813,32.2215,85.7365,274.3969,0,U,51635,999,21198,.68237767E-3,.251E-5,0
ONEWEB-0442,2022-012Q,2026-07-07T11:30:36.778176,13.17650533,.00019813,87.9137,1.8404,74.9183,285.2167,0,U,51636,999,21634,.18864952E-3,.86E-6,0
ONEWEB-0443,2022-012R,2026-07-06T21:23:44.331648,13.17649333,.0001531,87.9137,1.9588,88.5154,271.6153,0,U,51637,999,21631,.31764E-5,.14E-6,0
ONEWEB-0444,2022-012S,2026-07-06T22:47:12.453216,13.10373252,.00016492,87.8815,32.3287,86.9228,273.2088,0,U,51638,999,21192,.15727764E-2,.562E-5,0
ONEWEB-0445,2022-012T,2026-07-07T17:36:02.521728,13.10359707,.0002059,87.8824,32.1620,86.8225,273.3138,0,U,51639,999,21203,-.3591E-2,-.124E-4,0
ONEWEB-0446,2022-012U,2026-07-06T22:44:43.865088,13.10370374,.00021936,87.8817,32.3463,85.8312,274.3066,0,U,51640,999,21191,.16519039E-2,.589E-5,0
ONEWEB-0448,2022-012V,2026-07-06T22:52:05.691360,13.10372803,.00018121,87.8813,32.3412,86.5409,273.5925,0,U,51641,999,21188,.11779109E-2,.424E-5,0
ONEWEB-0449,2022-012W,2026-07-06T13:49:37.273440,13.10370027,.00021104,87.8818,32.4029,71.1207,289.0149,0,U,51642,999,21184,.27608044E-3,.109E-5,0
ONEWEB-0451,2022-012X,2026-07-07T11:36:40.082400,13.17650708,.00017981,87.9148,1.8065,86.3623,273.7714,0,U,51643,999,21633,.22577083E-3,.101E-5,0
ONEWEB-0452,2022-012Y,2026-07-07T11:34:13.210176,13.17650761,.00015986,87.9140,1.8419,86.3348,273.7967,0,U,51644,999,21634,.19194225E-3,.87E-6,0
ONEWEB-0456,2022-012AA,2026-07-07T12:01:15.687264,13.10368740,.00017435,87.8826,32.2073,90.4675,269.6652,0,U,51646,999,21200,-.35278815E-3,-.11E-5,0
ONEWEB-0457,2022-012AB,2026-07-06T22:39:41.251680,13.10374858,.00021873,87.8818,32.3344,82.6143,277.5233,0,U,51647,999,21193,.19450043E-2,.692E-5,0
ONEWEB-0458,2022-012AC,2026-07-06T23:10:22.919520,13.10369409,.00016749,87.8818,32.3184,82.9378,277.1939,0,U,51648,999,21189,-.55947667E-3,-.183E-5,0
ONEWEB-0461,2022-012AD,2026-07-07T13:55:10.651296,13.17649951,.0001967,87.9148,1.8010,89.7493,270.3864,0,U,51649,999,21657,.33537E-5,.14E-6,0
ONEWEB-0463,2022-012AE,2026-07-07T11:39:06.117408,13.17650642,.00020477,87.9136,1.8404,91.7166,268.4200,0,U,51650,999,21634,.13892056E-3,.67E-6,0
ONEWEB-0464,2022-012AF,2026-07-07T00:56:40.776576,13.10369216,.00015279,87.8814,32.3250,88.9202,271.2100,0,U,51651,999,21192,-.71927708E-4,-.12E-6,0
ONEWEB-0468,2022-012AG,2026-07-07T08:23:47.643072,13.10368480,.00016164,87.8813,32.2563,91.2637,268.8676,0,U,51652,999,21194,-.73743298E-3,-.245E-5,0
